NORAD_CAT_ID,OBJECT_NAME,OBJECT_TYPE,EPOCH,MEAN_MOTION,ECCENTRICITY,INCLINATION,RA_OF_ASC_NODE,ARG_OF_PERICENTER,MEAN_ANOMALY,BSTAR,MEAN_MOTION_DOT,MEAN_MOTION_DDOT,TLE_LINE0,TLE_LINE1,TLE_LINE2,SEMIMAJOR_AXIS,PERIOD,APOGEE,PERIGEE,DECAYED
55406.0,STARLINK-5630,PAYLOAD,2024-02-01 18:17:45,14.98320966,0.0002707,70.0006,198.2921,272.5333,87.5516,1.9674e-05,1.42e-06,0.0,0 STARLINK-5630,1 55406U 23014R   24032.76233470  .00000142  00000-0  19674-4 0  9991,2 55406  70.0006 198.2921 0002707 272.5333  87.5516 14.98320966 57178,6950.221,96.108,573.967,570.204,0.0
55406.0,STARLINK-5630,PAYLOAD,2024-02-02 11:55:14,14.98326654,0.0002957,70.0005,196.4405,270.2099,89.8721,7.3404e-05,7.83e-06,0.0,0 STARLINK-5630,1 55406U 23014R   24033.49669138  .00000783  00000-0  73404-4 0  9998,2 55406  70.0005 196.4405 0002957 270.2099  89.8721 14.98326654 56346,6950.203,96.107,574.123,570.013,0.0
55406.0,STARLINK-5630,PAYLOAD,2024-02-02 13:31:22,14.98326473,0.0002987,70.0,196.2721,272.3823,87.6994,7.467e-05,7.98e-06,0.0,0 STARLINK-5630,1 55406U 23014R   24033.56345174  .00000798  00000-0  74670-4 0  9999,2 55406  70.0000 196.2721 0002987 272.3823  87.6994 14.98326473 57293,6950.204,96.107,574.145,569.993,0.0
55406.0,STARLINK-5630,PAYLOAD,2024-02-02 19:55:54,14.98329891,0.0002878,70.0003,195.599,272.0257,88.0573,0.00010314,1.138e-05,0.0,0 STARLINK-5630,1 55406U 23014R   24033.83048909  .00001138  00000-0  10314-3 0  9998,2 55406  70.0003 195.5990 0002878 272.0257  88.0573 14.98329891 57333,6950.193,96.107,574.058,570.058,0.0
55406.0,STARLINK-5630,PAYLOAD,2024-02-03 11:57:15,14.98326958,0.000284,70.0003,193.9162,268.6072,91.4761,1.6309e-05,1.02e-06,0.0,0 STARLINK-5630,1 55406U 23014R   24034.49809406  .00000102  00000-0  16309-4 0  9999,2 55406  70.0003 193.9162 0002840 268.6072  91.4761 14.98326958 56495,6950.202,96.107,574.041,570.093,0.0
55406.0,STARLINK-5630,PAYLOAD,2024-02-03 13:33:23,14.98326714,0.0002843,70.0003,193.748,268.6292,91.4541,1.2758e-05,5.9e-07,0.0,0 STARLINK-5630,1 55406U 23014R   24034.56485440  .00000059  00000-0  12758-4 0  9990,2 55406  70.0003 193.7480 0002843 268.6292  91.4541 14.98326714 57445,6950.203,96.107,574.044,570.092,0.0
55406.0,STARLINK-5630,PAYLOAD,2024-02-03 19:57:55,14.98327312,0.0002835,70.0005,193.0748,268.4116,91.6718,1.8229e-05,1.25e-06,0.0,0 STARLINK-5630,1 55406U 23014R   24034.83189425  .00000125  00000-0  18229-4 0  9997,2 55406  70.0005 193.0748 0002835 268.4116  91.6718 14.98327312 57488,6950.201,96.107,574.037,570.096,0.0
55406.0,STARLINK-5630,PAYLOAD,2024-02-04 11:59:16,14.98329045,0.0002908,70.0004,191.3908,270.8915,89.191,-5.5464e-05,-7.55e-06,0.0,0 STARLINK-5630,1 55406U 23014R   24035.49949613 -.00000755  00000-0 -55464-4 0  9996,2 55406  70.0004 191.3908 0002908 270.8915  89.1910 14.98329045 56649,6950.196,96.107,574.082,570.04,0.0
55406.0,STARLINK-5630,PAYLOAD,2024-02-04 13:35:24,14.98328649,0.0002917,70.0004,191.2225,270.9209,89.1616,-5.8686e-05,-7.93e-06,0.0,0 STARLINK-5630,1 55406U 23014R   24035.56625648 -.00000793  00000-0 -58686-4 0  9994,2 55406  70.0004 191.2225 0002917 270.9209  89.1616 14.98328649 57594,6950.197,96.107,574.089,570.035,0.0
55406.0,STARLINK-5630,PAYLOAD,2024-02-04 19:59:56,14.98329926,0.0002924,70.0005,190.5494,271.2183,88.8641,-3.9339e-05,-5.62e-06,0.0,0 STARLINK-5630,1 55406U 23014R   24035.83329534 -.00000562  00000-0 -39339-4 0  9997,2 55406  70.0005 190.5494 0002924 271.2183  88.8641 14.98329926 57636,6950.193,96.107,574.09,570.026,0.0
55406.0,STARLINK-5630,PAYLOAD,2024-02-05 12:01:16,14.98332512,0.0002981,70.0006,188.8664,271.2093,88.8725,5.783e-05,5.97e-06,0.0,0 STARLINK-5630,1 55406U 23014R   24036.50089044  .00000597  00000-0  57830-4 0  9993,2 55406  70.0006 188.8664 0002981 271.2093  88.8725 14.98332512 56793,6950.185,96.107,574.122,569.978,0.0
55406.0,STARLINK-5630,PAYLOAD,2024-02-05 13:37:24,14.98332584,0.0002984,70.0007,188.6981,271.2404,88.8413,5.779e-05,5.97e-06,0.0,0 STARLINK-5630,1 55406U 23014R   24036.56765030  .00000597  00000-0  57790-4 0  9990,2 55406  70.0007 188.6981 0002984 271.2404  88.8413 14.98332584 57742,6950.185,96.107,574.124,569.976,0.0
55406.0,STARLINK-5630,PAYLOAD,2024-02-05 20:01:56,14.98335853,0.0002974,70.0008,188.0251,271.6571,88.4247,8.7201e-05,9.48e-06,0.0,0 STARLINK-5630,1 55406U 23014R   24036.83468686  .00000948  00000-0  87201-4 0  9997,2 55406  70.0008 188.0251 0002974 271.6571  88.4247 14.98335853 57782,6950.175,96.107,574.107,569.973,0.0
55406.0,STARLINK-5630,PAYLOAD,2024-02-06 12:03:17,14.98329872,0.0002933,70.0012,186.3421,272.016,88.0663,4.3955e-05,4.32e-06,0.0,0 STARLINK-5630,1 55406U 23014R   24037.50229082  .00000432  00000-0  43955-4 0  9993,2 55406  70.0012 186.3421 0002933 272.0160  88.0663 14.98329872 56940,6950.193,96.107,574.097,570.02,0.0
55406.0,STARLINK-5630,PAYLOAD,2024-02-06 13:39:25,14.98329907,0.0002936,70.0012,186.1739,272.0471,88.0352,4.3417e-05,4.25e-06,0.0,0 STARLINK-5630,1 55406U 23014R   24037.56905076  .00000425  00000-0  43417-4 0  9998,2 55406  70.0012 186.1739 0002936 272.0471  88.0352 14.98329907 57897,6950.193,96.107,574.099,570.018,0.0
55406.0,STARLINK-5630,PAYLOAD,2024-02-06 20:03:57,14.98333316,0.0002841,70.0014,185.5016,265.5528,94.5306,6.6071e-05,6.96e-06,0.0,0 STARLINK-5630,1 55406U 23014R   24037.83608718  .00000696  00000-0  66071-4 0  9992,2 55406  70.0014 185.5016 0002841 265.5528  94.5306 14.98333316 57930,6950.183,96.107,574.022,570.073,0.0
55406.0,STARLINK-5630,PAYLOAD,2024-02-07 12:05:19,14.98326515,0.0002435,70.0021,183.8183,257.4005,102.6882,-7.2492e-05,-9.58e-06,0.0,0 STARLINK-5630,1 55406U 23014R   24038.50369511 -.00000958  00000-0 -72492-4 0  9999,2 55406  70.0021 183.8183 0002435 257.4005 102.6882 14.98326515 57093,6950.204,96.107,573.761,570.376,0.0
55406.0,STARLINK-5630,PAYLOAD,2024-02-07 13:41:27,14.98341961,0.0002429,70.0019,183.6501,262.2926,97.7958,-0.00037559,-4.573e-05,0.0,0 STARLINK-5630,1 55406U 23014R   24038.57045496 -.00004573  00000-0 -37559-3 0  9990,2 55406  70.0019 183.6501 0002429 262.2926  97.7958 14.98341961 58047,6950.156,96.106,573.709,570.333,0.0
55406.0,STARLINK-5630,PAYLOAD,2024-02-07 18:29:51,14.9832562,0.0002415,70.0019,183.1451,252.4015,107.688,-8.3533e-05,-1.089e-05,0.0,0 STARLINK-5630,1 55406U 23014R   24038.77073642 -.00001089  00000-0 -83533-4 0  9999,2 55406  70.0019 183.1451 0002415 252.4015 107.6880 14.98325620 58073,6950.206,96.107,573.75,570.393,0.0
55406.0,STARLINK-5630,PAYLOAD,2024-02-08 12:07:19,14.98333409,0.0002682,70.0017,181.2938,258.7216,101.3642,2.5619e-05,2.13e-06,0.0,0 STARLINK-5630,1 55406U 23014R   24039.50508762  .00000213  00000-0  25619-4 0  9994,2 55406  70.0017 181.2938 0002682 258.7216 101.3642 14.98333409 57247,6950.182,96.107,573.911,570.183,0.0
55406.0,STARLINK-5630,PAYLOAD,2024-02-08 13:43:27,14.98333643,0.0002677,70.0017,181.1256,259.0999,100.9859,2.8967e-05,2.53e-06,0.0,0 STARLINK-5630,1 55406U 23014R   24039.57184728  .00000253  00000-0  28967-4 0  9996,2 55406  70.0017 181.1256 0002677 259.0999 100.9859 14.98333643 58195,6950.182,96.107,573.907,570.186,0.0
55406.0,STARLINK-5630,PAYLOAD,2024-02-08 18:31:51,14.98336379,0.0002639,70.0017,180.6207,258.0301,102.0562,6.0696e-05,6.31e-06,0.0,0 STARLINK-5630,1 55406U 23014R   24039.77212410  .00000631  00000-0  60696-4 0  9993,2 55406  70.0017 180.6207 0002639 258.0301 102.0562 14.98336379 58226,6950.173,96.107,573.872,570.204,0.0
55406.0,STARLINK-5630,PAYLOAD,2024-02-09 12:09:20,14.98327025,0.0002672,70.0014,178.7693,262.2791,97.8065,6.9086e-05,7.31e-06,0.0,0 STARLINK-5630,1 55406U 23014R   24040.50648890  .00000731  00000-0  69086-4 0  9994,2 55406  70.0014 178.7693 0002672 262.2791  97.8065 14.98327025 57391,6950.202,96.107,573.924,570.21,0.0
55406.0,STARLINK-5630,PAYLOAD,2024-02-09 13:45:28,14.98327159,0.0002674,70.0014,178.601,262.3942,97.6913,6.8806e-05,7.28e-06,0.0,0 STARLINK-5630,1 55406U 23014R   24040.57324893  .00000728  00000-0  68806-4 0  9990,2 55406  70.0014 178.6010 0002674 262.3942  97.6913 14.98327159 58348,6950.202,96.107,573.925,570.208,0.0
55406.0,STARLINK-5630,PAYLOAD,2024-02-10 12:11:21,14.98328784,0.0002441,70.0024,176.2465,249.502,110.5877,-5.6476e-05,-7.67e-06,0.0,0 STARLINK-5630,1 55406U 23014R   24041.50789167 -.00000767  00000-0 -56476-4 0  9998,2 55406  70.0024 176.2465 0002441 249.5020 110.5877 14.98328784 57543,6950.197,96.107,573.758,570.365,0.0
55406.0,STARLINK-5630,PAYLOAD,2024-02-10 13:47:29,14.98328574,0.0002442,70.0025,176.0783,249.2575,110.8322,-5.7206e-05,-7.75e-06,0.0,0 STARLINK-5630,1 55406U 23014R   24041.57465190 -.00000775  00000-0 -57206-4 0  9993,2 55406  70.0025 176.0783 0002442 249.2575 110.8322 14.98328574 58498,6950.197,96.107,573.76,570.365,0.0
55406.0,STARLINK-5630,PAYLOAD,2024-02-10 18:35:54,14.98327779,0.0002471,70.0024,175.5734,253.5679,106.5209,-6.5961e-05,-8.8e-06,0.0,0 STARLINK-5630,1 55406U 23014R   24041.77493305 -.00000880  00000-0 -65961-4 0  9998,2 55406  70.0024 175.5734 0002471 253.5679 106.5209 14.98327779 58528,6950.2,96.107,573.782,570.347,0.0
55406.0,STARLINK-5630,PAYLOAD,2024-02-11 12:13:22,14.9833187,0.0002666,70.0019,173.7203,264.8474,95.238,1.7615e-05,1.17e-06,0.0,0 STARLINK-5630,1 55406U 23014R   24042.50928763  .00000117  00000-0  17615-4 0  9995,2 55406  70.0019 173.7203 0002666 264.8474  95.2380 14.98331870 57695,6950.187,96.107,573.905,570.199,0.0
55406.0,STARLINK-5630,PAYLOAD,2024-02-11 18:37:54,14.98336974,0.0002597,70.0021,173.0474,262.5546,97.5318,7.6945e-05,8.25e-06,0.0,0 STARLINK-5630,1 55406U 23014R   24042.77632215  .00000825  00000-0  76945-4 0  9995,2 55406  70.0021 173.0474 0002597 262.5546  97.5318 14.98336974 58674,6950.171,96.107,573.841,570.231,0.0
55406.0,STARLINK-5630,PAYLOAD,2024-02-12 12:15:24,14.98320857,0.0002993,70.0027,171.2025,250.5872,109.4964,-9.7967e-05,-1.261e-05,0.0,0 STARLINK-5630,1 55406U 23014R   24043.51069841 -.00001261  00000-0 -97967-4 0  9991,2 55406  70.0027 171.2025 0002993 250.5872 109.4964 14.98320857 57842,6950.221,96.108,574.166,570.006,0.0
